INTELSAT 11 (IS-11)     
1 32253C 07044B   22325.00000000 -.00000178  00000-0  00000-0 0  3254
2 32253   0.1796  92.9990 0002573 170.9107 113.1013  1.00271052    19
INTELSAT 11 (IS-11) [PM]
1 32253C 07044B   22326.90180556 -.00000178  00000-0  00000-0 0  3260
2 32253   0.1875  92.7582 0002485 170.0997  80.6695  1.00272817    16
HORIZONS-2              
1 32388C 07063B   22321.00000000 -.00000224  00000-0  00000-0 0  3218
2 32388   0.0001 335.6336 0002238 261.0012 105.6300  1.00272623    12
HORIZONS-2              
1 32388C 07063B   22325.00000000 -.00000164  00000-0  00000-0 0  3259
2 32388   0.0227 287.6035 0001825 318.9144  99.6947  1.00271898    15
HORIZONS-2          [PM]
1 32388C 07063B   22327.97628472 -.00000164  00000-0  00000-0 0  3278
2 32388   0.0120 306.8209 0001835 294.5989  99.1840  1.00272792    12
GALAXY 18 (G-18)        
1 32951C 08024A   22321.00000000 -.00000132  00000-0  00000-0 0  3210
2 32951   0.0269 102.7362 0003068 137.7630  52.5786  1.00271600    15
GALAXY 18 (G-18)        
1 32951C 08024A   22325.00000000  .00000111  00000-0  00000-0 0  3254
2 32951   0.0224  46.6671 0002789 192.5237  57.8314  1.00270610    11
GALAXY 18 (G-18)    [PM]
1 32951C 08024A   22330.57359954  .00000098  00000-0  00000-0 0  3307
2 32951   0.0449 158.2676 0002645 287.8436  62.8781  1.00270664    18
INTELSAT 25 (IS-25)     
1 33153C 08034A   22321.00000000 -.00000133  00000-0  00000-0 0  3217
2 33153   0.0157 278.9174 0003089 319.9511 145.7034  1.00270852    17
INTELSAT 25 (IS-25) [PM]
1 33153C 08034A   22323.83663194 -.00000134  00000-0  00000-0 0  3232
2 33153   0.0366 195.9351 0002838 343.0935 149.5181  1.00272259    11
INTELSAT 25 (IS-25)     
1 33153C 08034A   22325.00000000 -.00000134  00000-0  00000-0 0  3256
2 33153   0.0133 293.0845 0002800 304.8704 150.5525  1.00271999    13
GALAXY 19 (G-19)        
1 33376C 08045A   22321.00000000 -.00000146  00000-0  00000-0 0  3210
2 33376   0.0021  61.0071 0003050 174.3921  83.6704  1.00271022    11
GALAXY 19 (G-19)    [PM]
1 33376C 08045A   22324.00821759 -.00000090  00000-0  00000-0 0  3246
2 33376   0.0084  50.8727 0002842 182.0418  92.0736  1.00271671    18
GALAXY 19 (G-19)        
1 33376C 08045A   22325.00000000 -.00000065  00000-0  00000-0 0  3258
2 33376   0.0470 103.1449 0002784 131.5407  88.3228  1.00271713    13
INTELSAT 14 (IS-14)     
1 36097C 09064A   22321.00000000 -.00000185  00000-0  00000-0 0  3218
2 36097   0.0000 294.8844 0002742 311.6481 124.5381  1.00272299    12
INTELSAT 14 (IS-14)     
1 36097C 09064A   22325.00000000 -.00000205  00000-0  00000-0 0  3259
2 36097   0.0115   7.4625 0002473 240.4925 127.0626  1.00270908    12
INTELSAT 14 (IS-14) [PM]
1 36097C 09064A   22330.82521991 -.00000185  00000-0  00000-0 0  3305
2 36097   0.0332 206.3162 0002129 319.2712 152.2379  1.00271445    18
INTELSAT 15 (IS-15)     
1 36106C 09067A   22321.00000000 -.00000096  00000-0  00000-0 0  3213
2 36106   0.0203 302.7482 0002468 305.5114 252.9606  1.00271210    13
INTELSAT 15 (IS-15)     
1 36106C 09067A   22325.00000000 -.00000096  00000-0  00000-0 0  3251
2 36106   0.0182 321.4791 0002143 284.2582 259.4286  1.00271442    15
INTELSAT 15 (IS-15) [PM]
1 36106C 09067A   22326.49212963 -.00000096  00000-0  00000-0 0  3269
2 36106   0.0178 336.5110 0002089 266.9440  80.3447  1.00272460    12
INTELSAT 16 (IS-16)     
1 36397C 10006A   22321.00000000 -.00000155  00000-0  00000-0 0  3216
2 36397   0.0205 296.0318 0002230 302.3108 101.5286  1.00272237    18
INTELSAT 16 (IS-16)     
1 36397C 10006A   22325.00000000 -.00000155  00000-0  00000-0 0  3254
2 36397   0.0160 315.4630 0001937 281.6523 106.7050  1.00271078    12
INTELSAT 16 (IS-16) [PM]
1 36397C 10006A   22332.31402778 -.00000155  00000-0  00000-0 0  3322
2 36397   0.0194 306.4936 0001809 297.3959 220.1773  1.00269948    19
INTELSAT 17 (IS-17)     
1 37238C 10065B   22321.00000000  .00000088  00000-0  00000-0 0  3210
2 37238   0.0206 236.8400 0002618   3.7688 241.4610  1.00271001    16
INTELSAT 17 (IS-17)     
1 37238C 10065B   22325.00000000  .00000088  00000-0  00000-0 0  3258
2 37238   0.0254 259.0343 0002455 341.6645 245.3141  1.00273724    14
INTELSAT 17 (IS-17) [PM]
1 37238C 10065B   22327.04255787  .00000093  00000-0  00000-0 0  3276
2 37238   0.0169 264.1787 0002323 331.6265 267.5519  1.00270391    11
INTELSAT NEW DAWN       
1 37392C 11016A   22321.00000000  .00000261  00000-0  00000-0 0  3211
2 37392   0.0284 137.3477 0001516 109.4515 202.0843  1.00271572    15
INTELSAT NEW DAWN       
1 37392C 11016A   22325.00000000  .00000079  00000-0  00000-0 0  3256
2 37392   0.0039  24.9648 0000635 182.3416 245.5031  1.00263668    13
INTELSAT NEW DAWN   [PM]
1 37392C 11016A   22329.01011574  .00000149  00000-0  00000-0 0  3291
2 37392   0.0024 280.0320 0001086 290.6272 249.7673  1.00268811    16
INTELSAT 18 (IS-18)     
1 37834C 11056A   22321.00000000  .00000143  00000-0  00000-0 0  3215
2 37834   0.0242 348.2837 0002095 241.9128   5.8988  1.00268927    17
INTELSAT 18 (IS-18)     
1 37834C 11056A   22325.00000000  .00000143  00000-0  00000-0 0  3253
2 37834   0.0302 331.9780 0001871 258.3778   9.6590  1.00271718    17
INTELSAT 18 (IS-18) [PM]
1 37834C 11056A   22326.66844907  .00000027  00000-0  00000-0 0  3260
2 37834   0.0302 343.0182 0001864 241.3500 257.9414  1.00269686    18
INTELSAT 22 (IS-22)     
1 38098C 12011A   22321.00000000 -.00000057  00000-0  00000-0 0  3215
2 38098   0.0066 274.3488 0002934 323.0785 250.7346  1.00272143    12
INTELSAT 22 (IS-22)     
1 38098C 12011A   22325.00000000 -.00000174  00000-0  00000-0 0  3253
2 38098   0.0008 307.2946 0002637 287.4776 257.3440  1.00272429    11
INTELSAT 22 (IS-22) [PM]
1 38098C 12011A   22328.00296296  .00000032  00000-0  00000-0 0  3285
2 38098   0.0203  40.2529 0002519 194.4662 261.4197  1.00271918    16
INTELSAT 19 (IS-19)     
1 38356C 12030A   22321.00000000  .00000035  00000-0  00000-0 0  3218
2 38356   0.0043 288.0239 0003188 315.1767 338.8680  1.00271167    18
INTELSAT 19 (IS-19)     
1 38356C 12030A   22325.00000000  .00000034  00000-0  00000-0 0  3255
2 38356   0.0146 295.2857 0002981 307.6961 343.0314  1.00272640    19
INTELSAT 19 (IS-19) [PM]
1 38356C 12030A   22326.71597222 -.00000091  00000-0  00000-0 0  3266
2 38356   0.0109 310.6890 0002930 290.2881 244.4847  1.00271085    16
INTELSAT 20 (IS-20)     
1 38740C 12043A   22321.00000000  .00000067  00000-0  00000-0 0  3214
2 38740   0.0356 106.5437 0003375  93.4729 284.5439  1.00270419    16
INTELSAT 20 (IS-20)     
1 38740C 12043A   22325.00000000  .00000065  00000-0  00000-0 0  3250
2 38740   0.0132 183.5648 0003442   8.4146 296.5363  1.00271227    18
INTELSAT 20 (IS-20) [PM]
1 38740C 12043A   22327.72662037  .00000067  00000-0  00000-0 0  3279
2 38740   0.0212 185.1015 0003339 265.6224 302.0560  1.00271870    18
INTELSAT 21 (IS-21)     
1 38749C 12045A   22321.00000000 -.00000195  00000-0  00000-0 0  3218
2 38749   0.0001 319.9061 0002426 276.9431 121.2163  1.00273430    16
INTELSAT 21 (IS-21)     
1 38749C 12045A   22325.00000000 -.00000195  00000-0  00000-0 0  3256
2 38749   0.0233 293.0159 0002321 300.8970 128.1116  1.00270797    19
INTELSAT 21 (IS-21) [PM]
1 38749C 12045A   22326.72219907 -.00000195  00000-0  00000-0 0  3265
2 38749   0.0171 304.2076 0002118 286.2929  33.2025  1.00272855    10
INTELSAT 23 (IS-23)     
1 38867C 12057A   22321.00000000 -.00000195  00000-0  00000-0 0  3212
2 38867   0.0179 273.3494 0001119  87.9361   1.7829  1.00274688    13
INTELSAT 23 (IS-23)     
1 38867C 12057A   22325.00000000 -.00000195  00000-0  00000-0 0  3250
2 38867   0.0202 286.9350 0000592 172.4298 267.6814  1.00266575    17
INTELSAT 23 (IS-23) [PM]
1 38867C 12057A   22327.91864583 -.00000195  00000-0  00000-0 0  3278
2 38867   0.0208 254.1508 0001309  79.5116   6.9495  1.00273066    10
INTELSAT 30 (IS-30)     
1 40271C 14062A   22321.00000000 -.00000061  00000-0  00000-0 0  3214
2 40271   0.0049 279.7290 0001865 178.8969 222.3903  1.00270495    13
INTELSAT 30 (IS-30)     
1 40271C 14062A   22325.00000000 -.00000063  00000-0  00000-0 0  3254
2 40271   0.0111 294.0011 0002450 169.1968 221.7691  1.00270301    10
INTELSAT 30 (IS-30) [PM]
1 40271C 14062A   22327.40277778 -.00000058  00000-0  00000-0 0  3274
2 40271   0.0572 114.4125 0002466 133.4496 224.4592  1.00272827    14
INTELSAT 34 (IS-34)     
1 40874C 15039A   22321.00000000 -.00000195  00000-0  00000-0 0  3216
2 40874   0.0045 279.8501 0000411 269.3082 171.4145  1.00268844    19
INTELSAT 34 (IS-34)     
1 40874C 15039A   22325.00000000 -.00000196  00000-0  00000-0 0  3255
2 40874   0.0103 294.9627 0000746 222.5464 207.0175  1.00271253    14
INTELSAT 34 (IS-34) [PM]
1 40874C 15039A   22329.25096065 -.00000195  00000-0  00000-0 0  3295
2 40874   0.0503  98.3760 0001096 141.5688 219.1207  1.00271804    11
INTELSAT 31 (IS-31)     
1 41581C 16035A   22321.00000000 -.00000061  00000-0  00000-0 0  3211
2 41581   0.0209 250.9338 0001863 321.6240 108.4615  1.00269624    14
INTELSAT 31 (IS-31) [PM]
1 41581C 16035A   22321.54668982 -.00000061  00000-0  00000-0 0  3219
2 41581   0.0554 100.1163 0001854 306.5878 111.6576  1.00272732    14
INTELSAT 31 (IS-31)     
1 41581C 16035A   22325.00000000 -.00000059  00000-0  00000-0 0  3256
2 41581   0.0204 265.3926 0001704 296.3254 123.2506  1.00270872    10
INTELSAT 36 (IS-36)     
1 41747C 16053A   22321.00000000  .00000059  00000-0  00000-0 0  3211
2 41747   0.0099 327.7561 0001508  29.2437 127.5626  1.00270607    18
INTELSAT 36 (IS-36)     
1 41747C 16053A   22325.00000000  .00000065  00000-0  00000-0 0  3256
2 41747   0.0171 318.1715 0001460  61.2111 109.1341  1.00271118    14
INTELSAT 36 (IS-36) [PM]
1 41747C 16053A   22327.30450232  .00000066  00000-0  00000-0 0  3270
2 41747   0.0602 103.1665 0001413  32.1309 105.0987  1.00272620    13
